<?xml version="1.0" encoding="UTF-8"?><kml xmlns="http://www.opengis.net/kml/2.2"><Document><name>overpass-turbo.eu export</name><description>Filtered OSM data converted to KML by overpass turbo.
Copyright: The data included in this document is from www.openstreetmap.org. The data is made available under ODbL.
Timestamp: 2026-05-13T23:10:48Z</description><Placemark><name>Antonio Balcarce</name><ExtendedData><Data name="@id"><value>way/34210763</value></Data><Data name="highway"><value>residential</value></Data><Data name="lit"><value>yes</value></Data><Data name="name"><value>Antonio Balcarce</value></Data><Data name="old_name"><value>Calle de la Florida</value></Data><Data name="oneway"><value>yes</value></Data><Data name="short_name"><value>Balcarce</value></Data><Data name="sidewalk"><value>both</value></Data><Data name="surface"><value>asphalt</value></Data></ExtendedData><LineString><coordinates>-65.4123944,-24.7896984 -65.4122682,-24.7884574 -65.4121819,-24.7876002 -65.4122065,-24.7874934 -65.4120542,-24.7861943 -65.411925,-24.7848873 -65.4118079,-24.7836752 -65.4118031,-24.783626</coordinates></LineString></Placemark><Placemark><name>Córdoba</name><ExtendedData><Data name="@id"><value>way/86216573</value></Data><Data name="highway"><value>secondary</value></Data><Data name="lanes"><value>4</value></Data><Data name="lit"><value>yes</value></Data><Data name="maxspeed"><value>40</value></Data><Data name="name"><value>Córdoba</value></Data><Data name="oneway"><value>yes</value></Data><Data name="parking:both"><value>yes</value></Data><Data name="parking:both:orientation"><value>parallel</value></Data><Data name="parking:condition:both"><value>free</value></Data><Data name="sidewalk"><value>both</value></Data><Data name="surface"><value>asphalt</value></Data></ExtendedData><LineString><coordinates>-65.4086459,-24.7938456 -65.4086627,-24.7940473 -65.4086781,-24.7942314 -65.4086799,-24.7942541 -65.408686,-24.79433 -65.4087406,-24.7950059 -65.4088354,-24.7963272 -65.4088748,-24.7969428 -65.4089207,-24.7975543 -65.4090268,-24.7987869 -65.4090839,-24.7995128 -65.4091324,-24.8002286 -65.4092288,-24.8014522 -65.4093259,-24.8026431 -65.4093324,-24.8027135 -65.4093388,-24.8027841 -65.4093647,-24.8031121 -65.4093973,-24.8034766 -65.4094393,-24.8039653 -65.4094888,-24.8046152 -65.4095449,-24.8052867 -65.4095959,-24.8059822 -65.4096393,-24.8065203 -65.4096956,-24.8072813 -65.4096981,-24.8073212 -65.4097012,-24.8073659 -65.4097536,-24.8080495 -65.4097618,-24.8081569</coordinates></LineString></Placemark><Placemark><name>Ituzaingó</name><ExtendedData><Data name="@id"><value>way/86216575</value></Data><Data name="highway"><value>residential</value></Data><Data name="name"><value>Ituzaingó</value></Data><Data name="oneway"><value>yes</value></Data></ExtendedData><LineString><coordinates>-65.4137381,-24.7896137 -65.4137973,-24.7901689 -65.4138126,-24.7903057 -65.4138686,-24.7908264 -65.4139887,-24.7921204</coordinates></LineString></Placemark><Placemark><name>25 de Mayo</name><ExtendedData><Data name="@id"><value>way/86216577</value></Data><Data name="highway"><value>secondary</value></Data><Data name="name"><value>25 de Mayo</value></Data><Data name="oneway"><value>yes</value></Data></ExtendedData><LineString><coordinates>-65.4150781,-24.7895261 -65.4150377,-24.7885157 -65.4150271,-24.7882499 -65.4149283,-24.7871896 -65.4148975,-24.7869253</coordinates></LineString></Placemark><Placemark><name>Catamarca</name><ExtendedData><Data name="@id"><value>way/86216581</value></Data><Data name="highway"><value>residential</value></Data><Data name="lanes"><value>2</value></Data><Data name="lit"><value>yes</value></Data><Data name="maxspeed"><value>40</value></Data><Data name="name"><value>Catamarca</value></Data><Data name="oneway"><value>yes</value></Data><Data name="sidewalk"><value>both</value></Data><Data name="smoothness"><value>horrible</value></Data><Data name="surface"><value>asphalt</value></Data></ExtendedData><LineString><coordinates>-65.4058662,-24.7939671 -65.4058618,-24.7940568 -65.4058836,-24.7943677 -65.405892,-24.7944871 -65.4059061,-24.7946882 -65.4059082,-24.7947256 -65.4059114,-24.794775 -65.4059359,-24.7951565 -65.4059418,-24.7952477 -65.406074,-24.796523 -65.4060787,-24.7965877 -65.4060833,-24.7966606 -65.4061147,-24.7971949 -65.4061515,-24.7977225 -65.406157,-24.7977899 -65.4061625,-24.7978577 -65.4062362,-24.7989127 -65.406242,-24.798984 -65.4062467,-24.7990482 -65.4062909,-24.7997537 -65.4063331,-24.8003794 -65.4063391,-24.8004563 -65.4063467,-24.8005412 -65.4064332,-24.8016432 -65.4064406,-24.8017259 -65.4064467,-24.8017956 -65.4065315,-24.8029135 -65.4065374,-24.8029838 -65.406542,-24.8030466 -65.406576,-24.8035956 -65.4065873,-24.8037555 -65.4066128,-24.804169 -65.4066169,-24.8042256 -65.4066206,-24.8042815 -65.4066581,-24.8048101 -65.4066604,-24.8048552 -65.4066668,-24.804947 -65.4067041,-24.8054283 -65.4067091,-24.8054974 -65.4067136,-24.8055699 -65.4067509,-24.8060942 -65.406755,-24.8061443 -65.4067613,-24.8062209 -65.4067959,-24.8067077 -65.4067996,-24.806769 -65.4068032,-24.8068396 -65.4068398,-24.8074325 -65.4068842,-24.808044 -65.4068922,-24.8081598</coordinates></LineString></Placemark><Placemark><name>Manuel Antonio Castro</name><ExtendedData><Data name="@id"><value>way/102896862</value></Data><Data name="highway"><value>residential</value></Data><Data name="name"><value>Manuel Antonio Castro</value></Data><Data name="oneway"><value>yes</value></Data><Data name="surface"><value>asphalt</value></Data></ExtendedData><LineString><coordinates>-65.4128235,-24.7872665 -65.412693,-24.7861443</coordinates></LineString></Placemark><Placemark><name>España</name><ExtendedData><Data name="@id"><value>way/110355020</value></Data><Data name="fixme:housenumber"><value>2166</value></Data><Data name="highway"><value>residential</value></Data><Data name="name"><value>España</value></Data><Data name="old_name"><value>Calle de la Victoria</value></Data><Data name="oneway"><value>yes</value></Data></ExtendedData><LineString><coordinates>-65.4122682,-24.7884574 -65.4130204,-24.7883956 -65.4136067,-24.7883474 -65.4150271,-24.7882499 -65.4153596,-24.7882226 -65.4163355,-24.7881426 -65.4166516,-24.7881191 -65.4168355,-24.7881055 -65.4178229,-24.7880325 -65.419156,-24.7879295 -65.4205302,-24.7878354 -65.4218993,-24.7877349 -65.4226043,-24.7876928 -65.4233108,-24.787652 -65.4240646,-24.7875846 -65.4247047,-24.7875427 -65.4261005,-24.7874387 -65.4274689,-24.7873483 -65.4281609,-24.7872964 -65.4288541,-24.7872406 -65.4294122,-24.7872008 -65.4302504,-24.787165 -65.4308783,-24.7871174 -65.4316675,-24.7870575 -65.4323219,-24.7870077 -65.4330295,-24.7869611 -65.4344027,-24.7868515 -65.4357918,-24.7867724 -65.4360866,-24.7867511</coordinates></LineString></Placemark><Placemark><name>Avenida Manuel Belgrano</name><ExtendedData><Data name="@id"><value>way/110355637</value></Data><Data name="cycleway:left"><value>lane</value></Data><Data name="highway"><value>secondary</value></Data><Data name="lane_markings"><value>yes</value></Data><Data name="name"><value>Avenida Manuel Belgrano</value></Data><Data name="oneway"><value>yes</value></Data><Data name="surface"><value>asphalt</value></Data></ExtendedData><LineString><coordinates>-65.40673,-24.7876419 -65.4066085,-24.7876121 -65.4064661,-24.7875626 -65.4063443,-24.7875139 -65.4062515,-24.7874757 -65.4061848,-24.7874395 -65.4060952,-24.7873943 -65.4060185,-24.7873491 -65.4058482,-24.7872147</coordinates></LineString></Placemark><Placemark><name>Bartolomé Mitre</name><ExtendedData><Data name="@id"><value>way/124766628</value></Data><Data name="highway"><value>tertiary</value></Data><Data name="name"><value>Bartolomé Mitre</value></Data><Data name="oneway"><value>yes</value></Data><Data name="surface"><value>asphalt</value></Data></ExtendedData><LineString><coordinates>-65.4104201,-24.7837131 -65.4104243,-24.7837559 -65.4104946,-24.78447 -65.4105469,-24.7850033 -65.4106886,-24.7863396 -65.4108343,-24.7877121</coordinates></LineString></Placemark><Placemark><ExtendedData><Data name="@id"><value>way/125150504</value></Data><Data name="highway"><value>secondary_link</value></Data><Data name="oneway"><value>yes</value></Data></ExtendedData><LineString><coordinates>-65.4058482,-24.7872147 -65.4058048,-24.7871229 -65.4057899,-24.7870629 -65.4057943,-24.7870224 -65.405818,-24.7869849 -65.4058612,-24.7869281</coordinates></LineString></Placemark><Placemark><name>Avenida Domingo Faustino Sarmiento</name><ExtendedData><Data name="@id"><value>way/158295060</value></Data><Data name="highway"><value>secondary</value></Data><Data name="name"><value>Avenida Domingo Faustino Sarmiento</value></Data><Data name="oneway"><value>yes</value></Data><Data name="surface"><value>asphalt</value></Data></ExtendedData><LineString><coordinates>-65.415652,-24.7808944 -65.4156585,-24.7809768 -65.4156775,-24.781165 -65.4157221,-24.7815179 -65.4157843,-24.78201 -65.4157953,-24.782118 -65.4158036,-24.7821987 -65.4159209,-24.7833452 -65.4160525,-24.7846087</coordinates></LineString></Placemark><Placemark><name>Caseros</name><ExtendedData><Data name="@id"><value>way/167717981</value></Data><Data name="highway"><value>residential</value></Data><Data name="lane_markings"><value>no</value></Data><Data name="name"><value>Caseros</value></Data><Data name="oneway"><value>yes</value></Data><Data name="surface"><value>asphalt</value></Data></ExtendedData><LineString><coordinates>-65.4042478,-24.7901178 -65.4027179,-24.7902211</coordinates></LineString></Placemark><Placemark><name>Avenida Manuel Belgrano</name><ExtendedData><Data name="@id"><value>way/193819160</value></Data><Data name="cycleway:left"><value>lane</value></Data><Data name="highway"><value>secondary</value></Data><Data name="lane_markings"><value>yes</value></Data><Data name="lanes"><value>2</value></Data><Data name="name"><value>Avenida Manuel Belgrano</value></Data><Data name="oneway"><value>yes</value></Data><Data name="surface"><value>asphalt</value></Data></ExtendedData><LineString><coordinates>-65.4080772,-24.7875891 -65.4072288,-24.7876224 -65.4069954,-24.7876315 -65.40673,-24.7876419</coordinates></LineString></Placemark><Placemark><name>Benjamín Zorrilla</name><ExtendedData><Data name="@id"><value>way/193819161</value></Data><Data name="highway"><value>residential</value></Data><Data name="lane_markings"><value>no</value></Data><Data name="name"><value>Benjamín Zorrilla</value></Data><Data name="oneway"><value>yes</value></Data><Data name="surface"><value>asphalt</value></Data></ExtendedData><LineString><coordinates>-65.40673,-24.7876419 -65.4065975,-24.7876969 -65.4054067,-24.7878513</coordinates></LineString></Placemark><Placemark><name>Benjamín Zorrilla</name><ExtendedData><Data name="@id"><value>way/193819162</value></Data><Data name="highway"><value>residential</value></Data><Data name="name"><value>Benjamín Zorrilla</value></Data><Data name="oneway"><value>yes</value></Data></ExtendedData><LineString><coordinates>-65.4054067,-24.7878513 -65.4040961,-24.7880097 -65.4026708,-24.7882088 -65.4026074,-24.7882177</coordinates></LineString></Placemark><Placemark><name>Deán Funes</name><ExtendedData><Data name="@id"><value>way/193819163</value></Data><Data name="highway"><value>residential</value></Data><Data name="lane_markings"><value>no</value></Data><Data name="name"><value>Deán Funes</value></Data><Data name="oneway"><value>yes</value></Data><Data name="surface"><value>asphalt</value></Data></ExtendedData><LineString><coordinates>-65.4079793,-24.7866059 -65.4080644,-24.7874455 -65.4080772,-24.7875891</coordinates></LineString></Placemark><Placemark><name>Deán Funes</name><ExtendedData><Data name="@id"><value>way/193819164</value></Data><Data name="highway"><value>residential</value></Data><Data name="lane_markings"><value>no</value></Data><Data name="name"><value>Deán Funes</value></Data><Data name="oneway"><value>yes</value></Data><Data name="surface"><value>paving_stones</value></Data></ExtendedData><LineString><coordinates>-65.4081943,-24.7887576 -65.4083104,-24.789984</coordinates></LineString></Placemark><Placemark><name>General Martín Miguel de Güemes</name><ExtendedData><Data name="@id"><value>way/193819165</value></Data><Data name="highway"><value>residential</value></Data><Data name="name"><value>General Martín Miguel de Güemes</value></Data><Data name="oneway"><value>yes</value></Data><Data name="short_name"><value>General Güemes</value></Data></ExtendedData><LineString><coordinates>-65.4079793,-24.7866059 -65.4085881,-24.786545 -65.4093416,-24.7864696 -65.4106886,-24.7863396 -65.4120542,-24.7861943 -65.412693,-24.7861443 -65.4127659,-24.7860823 -65.4133755,-24.7860157 -65.4147748,-24.7858319 -65.4161466,-24.7856696 -65.4175752,-24.7855715 -65.4189696,-24.785473 -65.420352,-24.7853858 -65.421719,-24.7852848 -65.4231046,-24.7851911 -65.4238076,-24.7851372 -65.4245019,-24.7850883 -65.4258794,-24.7850018 -65.4263674,-24.7849688 -65.4272431,-24.7848973 -65.4286801,-24.7848189</coordinates></LineString></Placemark><Placemark><name>General Martín Miguel de Güemes</name><ExtendedData><Data name="@id"><value>way/196489389</value></Data><Data name="highway"><value>residential</value></Data><Data name="lane_markings"><value>no</value></Data><Data name="name"><value>General Martín Miguel de Güemes</value></Data><Data name="oneway"><value>yes</value></Data><Data name="short_name"><value>General Güemes</value></Data><Data name="surface"><value>asphalt</value></Data></ExtendedData><LineString><coordinates>-65.4058612,-24.7869281 -65.4059463,-24.7868919 -65.4060436,-24.7868605 -65.4063435,-24.7868107 -65.4066662,-24.7867668 -65.4079793,-24.7866059</coordinates></LineString></Placemark><Placemark><name>Miramar</name><ExtendedData><Data name="@id"><value>way/196532712</value></Data><Data name="highway"><value>residential</value></Data><Data name="lane_markings"><value>no</value></Data><Data name="name"><value>Miramar</value></Data><Data name="oneway"><value>yes</value></Data><Data name="surface"><value>asphalt</value></Data></ExtendedData><LineString><coordinates>-65.4100167,-24.7939554 -65.4099351,-24.793964 -65.4093351,-24.7940274 -65.4086781,-24.7942314 -65.4072167,-24.7946717</coordinates></LineString></Placemark><Placemark><name>Avenida San Martín</name><ExtendedData><Data name="@id"><value>way/196574130</value></Data><Data name="highway"><value>secondary</value></Data><Data name="name"><value>Avenida San Martín</value></Data><Data name="oneway"><value>yes</value></Data></ExtendedData><LineString><coordinates>-65.4045555,-24.7940319 -65.4046323,-24.7940273 -65.4052078,-24.7940015 -65.4057625,-24.7939766 -65.4058662,-24.7939671</coordinates></LineString></Placemark><Placemark><name>Deán Funes</name><ExtendedData><Data name="@id"><value>way/196574133</value></Data><Data name="highway"><value>residential</value></Data><Data name="lane_markings"><value>no</value></Data><Data name="lit"><value>yes</value></Data><Data name="name"><value>Deán Funes</value></Data><Data name="oneway"><value>yes</value></Data><Data name="sidewalk"><value>both</value></Data><Data name="surface"><value>asphalt</value></Data></ExtendedData><LineString><coordinates>-65.4075564,-24.7826576 -65.4076919,-24.7839014 -65.40773,-24.7842544 -65.4078137,-24.7850311 -65.407834,-24.7852213 -65.4079793,-24.7866059</coordinates></LineString></Placemark><Placemark><name>Santa Fe</name><ExtendedData><Data name="@id"><value>way/196574147</value></Data><Data name="highway"><value>residential</value></Data><Data name="lane_markings"><value>no</value></Data><Data name="name"><value>Santa Fe</value></Data><Data name="oneway"><value>yes</value></Data><Data name="surface"><value>asphalt</value></Data></ExtendedData><LineString><coordinates>-65.4045555,-24.7940319 -65.4045493,-24.7939568 -65.4044584,-24.7928555 -65.4044523,-24.7927818 -65.4043806,-24.7915305 -65.4042576,-24.7902438</coordinates></LineString></Placemark><Placemark><name>Rudecindo Alvarado</name><ExtendedData><Data name="@id"><value>way/197277112</value></Data><Data name="highway"><value>residential</value></Data><Data name="name"><value>Rudecindo Alvarado</value></Data><Data name="oneway"><value>yes</value></Data></ExtendedData><LineString><coordinates>-65.4057127,-24.7913571 -65.4057959,-24.7913527 -65.4070282,-24.7913434 -65.4084173,-24.7913123 -65.4085002,-24.7913097 -65.4097793,-24.7911981 -65.4111567,-24.7910587 -65.412528,-24.7909409 -65.4138686,-24.7908264 -65.4151557,-24.7907274 -65.4157153,-24.7906834 -65.4165883,-24.7906148 -65.4172552,-24.7905684 -65.4180886,-24.7905105 -65.4192028,-24.7904319 -65.4192943,-24.7904258 -65.4205252,-24.7903542 -65.4207951,-24.790336 -65.4220389,-24.7902583 -65.4226169,-24.7902184 -65.4227975,-24.7902058 -65.42357,-24.7901589 -65.424934,-24.7900636 -65.4263103,-24.7899617 -65.4276821,-24.7898692 -65.4290786,-24.7897663 -65.4304524,-24.7896775 -65.4318339,-24.7895834 -65.432295,-24.7895479 -65.4325853,-24.7895255 -65.4332337,-24.7894697 -65.4346413,-24.7893615 -65.4360067,-24.7892623 -65.4373962,-24.7891613 -65.4381694,-24.7891051</coordinates></LineString></Placemark><Placemark><name>Avenida Manuel Belgrano</name><ExtendedData><Data name="@id"><value>way/197277113</value></Data><Data name="cycleway:left"><value>lane</value></Data><Data name="highway"><value>secondary</value></Data><Data name="name"><value>Avenida Manuel Belgrano</value></Data><Data name="oneway"><value>yes</value></Data><Data name="surface"><value>asphalt</value></Data></ExtendedData><LineString><coordinates>-65.4108343,-24.7877121 -65.4105321,-24.7876673 -65.4101314,-24.7875948 -65.4098823,-24.787568 -65.4094554,-24.7875635</coordinates></LineString></Placemark><Placemark><name>Avenida San Martín</name><ExtendedData><Data name="@id"><value>way/197277120</value></Data><Data name="highway"><value>secondary</value></Data><Data name="name"><value>Avenida San Martín</value></Data><Data name="oneway"><value>yes</value></Data></ExtendedData><LineString><coordinates>-65.4058662,-24.7939671 -65.4059887,-24.793961 -65.4070801,-24.793918 -65.4071657,-24.7939114</coordinates></LineString></Placemark><Placemark><name>Santiago del Estero</name><ExtendedData><Data name="@id"><value>way/197277148</value></Data><Data name="bicycle"><value>yes</value></Data><Data name="cycleway"><value>no</value></Data><Data name="foot"><value>yes</value></Data><Data name="highway"><value>residential</value></Data><Data name="lit"><value>yes</value></Data><Data name="name"><value>Santiago del Estero</value></Data><Data name="oneway"><value>yes</value></Data><Data name="sidewalk"><value>both</value></Data><Data name="surface"><value>asphalt</value></Data></ExtendedData><LineString><coordinates>-65.4132621,-24.784789 -65.4126489,-24.7848388 -65.411925,-24.7848873 -65.4105469,-24.7850033 -65.4091942,-24.7851203</coordinates></LineString></Placemark><Placemark><name>20 de Febrero</name><ExtendedData><Data name="@id"><value>way/197277223</value></Data><Data name="highway"><value>residential</value></Data><Data name="lane_markings"><value>no</value></Data><Data name="name"><value>20 de Febrero</value></Data><Data name="oneway"><value>yes</value></Data><Data name="surface"><value>asphalt</value></Data></ExtendedData><LineString><coordinates>-65.4132621,-24.784789 -65.4133755,-24.7860157 -65.4134269,-24.7864989 -65.4134854,-24.7870476</coordinates></LineString></Placemark><Placemark><name>Avenida San Martín</name><ExtendedData><Data name="@id"><value>way/197460658</value></Data><Data name="highway"><value>secondary</value></Data><Data name="name"><value>Avenida San Martín</value></Data><Data name="oneway"><value>yes</value></Data></ExtendedData><LineString><coordinates>-65.4071657,-24.7939114 -65.4072576,-24.793899 -65.4085726,-24.7938484 -65.4086459,-24.7938456</coordinates></LineString></Placemark><Placemark><name>Avenida Manuel Belgrano</name><ExtendedData><Data name="@id"><value>way/197469330</value></Data><Data name="cycleway:left"><value>lane</value></Data><Data name="highway"><value>secondary</value></Data><Data name="lane_markings"><value>yes</value></Data><Data name="lanes"><value>2</value></Data><Data name="name"><value>Avenida Manuel Belgrano</value></Data><Data name="oneway"><value>yes</value></Data><Data name="surface"><value>asphalt</value></Data></ExtendedData><LineString><coordinates>-65.4162011,-24.7867758 -65.4148975,-24.7869253</coordinates></LineString></Placemark><Placemark><name>Avenida San Martín</name><ExtendedData><Data name="@id"><value>way/197469341</value></Data><Data name="highway"><value>secondary</value></Data><Data name="name"><value>Avenida San Martín</value></Data><Data name="oneway"><value>yes</value></Data></ExtendedData><LineString><coordinates>-65.4127616,-24.7933401 -65.4136504,-24.7932848 -65.4141065,-24.7932565 -65.4146251,-24.793225 -65.4154181,-24.7931997 -65.416866,-24.7931165</coordinates></LineString></Placemark><Placemark><name>Florida</name><ExtendedData><Data name="@id"><value>way/197469354</value></Data><Data name="highway"><value>residential</value></Data><Data name="name"><value>Florida</value></Data><Data name="oneway"><value>yes</value></Data></ExtendedData><LineString><coordinates>-65.4129914,-24.7959564 -65.4128732,-24.7946769 -65.4127616,-24.7933401</coordinates></LineString></Placemark><Placemark><name>Santiago del Estero</name><ExtendedData><Data name="@id"><value>way/197469382</value></Data><Data name="bicycle"><value>yes</value></Data><Data name="cycleway"><value>no</value></Data><Data name="foot"><value>yes</value></Data><Data name="highway"><value>residential</value></Data><Data name="name"><value>Santiago del Estero</value></Data><Data name="oneway"><value>yes</value></Data><Data name="surface"><value>asphalt</value></Data></ExtendedData><LineString><coordinates>-65.4160525,-24.7846087 -65.4146673,-24.7846993</coordinates></LineString></Placemark><Placemark><name>Avenida San Martín</name><ExtendedData><Data name="@id"><value>way/197593308</value></Data><Data name="highway"><value>secondary</value></Data><Data name="lanes"><value>2</value></Data><Data name="name"><value>Avenida San Martín</value></Data><Data name="oneway"><value>yes</value></Data><Data name="surface"><value>asphalt</value></Data></ExtendedData><LineString><coordinates>-65.4086459,-24.7938456 -65.4098147,-24.7937876 -65.4098978,-24.7937827 -65.4100013,-24.7937767</coordinates></LineString></Placemark><Placemark><name>Caseros</name><ExtendedData><Data name="@id"><value>way/197593315</value></Data><Data name="highway"><value>residential</value></Data><Data name="name"><value>Caseros</value></Data><Data name="oneway"><value>yes</value></Data></ExtendedData><LineString><coordinates>-65.423453,-24.7889626 -65.4227092,-24.7890049 -65.4225147,-24.7890223 -65.4219741,-24.789053 -65.420592,-24.7891466 -65.4204191,-24.789164 -65.4192488,-24.7892397 -65.4179362,-24.7893353 -65.4164623,-24.7894297 -65.4156875,-24.7894838 -65.4150781,-24.7895261</coordinates></LineString></Placemark><Placemark><name>Facundo de Zuviría</name><ExtendedData><Data name="@id"><value>way/197593322</value></Data><Data name="highway"><value>tertiary</value></Data><Data name="name"><value>Facundo de Zuviría</value></Data><Data name="oneway"><value>yes</value></Data><Data name="short_name"><value>Zuviria</value></Data><Data name="surface"><value>asphalt</value></Data></ExtendedData><LineString><coordinates>-65.4091942,-24.7851203 -65.409049,-24.7838073 -65.4089378,-24.782555 -65.4088685,-24.7818833 -65.4088011,-24.7814262 -65.4087905,-24.7813542</coordinates></LineString></Placemark><Placemark><name>Carlos Pellegrini</name><ExtendedData><Data name="@id"><value>way/197593335</value></Data><Data name="highway"><value>secondary</value></Data><Data name="name"><value>Carlos Pellegrini</value></Data><Data name="oneway"><value>yes</value></Data></ExtendedData><LineString><coordinates>-65.4153103,-24.7920252 -65.4152692,-24.7916926 -65.4151557,-24.7907274 -65.4150781,-24.7895261</coordinates></LineString></Placemark><Placemark><name>Santiago del Estero</name><ExtendedData><Data name="@id"><value>way/197593340</value></Data><Data name="bicycle"><value>yes</value></Data><Data name="cycleway"><value>no</value></Data><Data name="foot"><value>yes</value></Data><Data name="highway"><value>residential</value></Data><Data name="name"><value>Santiago del Estero</value></Data><Data name="oneway"><value>yes</value></Data></ExtendedData><LineString><coordinates>-65.4146673,-24.7846993 -65.4132621,-24.784789</coordinates></LineString></Placemark><Placemark><name>Santiago del Estero</name><ExtendedData><Data name="@id"><value>way/197593343</value></Data><Data name="bicycle"><value>yes</value></Data><Data name="cycleway"><value>no</value></Data><Data name="foot"><value>yes</value></Data><Data name="highway"><value>residential</value></Data><Data name="name"><value>Santiago del Estero</value></Data><Data name="oneway"><value>yes</value></Data><Data name="surface"><value>asphalt</value></Data></ExtendedData><LineString><coordinates>-65.4091942,-24.7851203 -65.407834,-24.7852213 -65.40652,-24.7853361 -65.4052214,-24.7854324 -65.4038979,-24.7855445 -65.4032969,-24.7855961 -65.4027823,-24.7856429</coordinates></LineString></Placemark><Placemark><name>Justo José de Urquiza</name><ExtendedData><Data name="@id"><value>way/197593346</value></Data><Data name="highway"><value>residential</value></Data><Data name="lane_markings"><value>no</value></Data><Data name="name"><value>Justo José de Urquiza</value></Data><Data name="oneway"><value>yes</value></Data><Data name="surface"><value>asphalt</value></Data></ExtendedData><LineString><coordinates>-65.4153103,-24.7920252 -65.4144861,-24.7920846 -65.4139887,-24.7921204 -65.412655,-24.7922252 -65.4112626,-24.7923441 -65.409898,-24.7924891 -65.4085278,-24.7925402 -65.4071,-24.7926231 -65.405946,-24.7926883 -65.4058033,-24.7926967 -65.4057287,-24.792701 -65.4044523,-24.7927818 -65.4043797,-24.7927859 -65.4029534,-24.7928582 -65.4028719,-24.7928623</coordinates></LineString></Placemark><Placemark><name>Justo José de Urquiza</name><ExtendedData><Data name="@id"><value>way/197593347</value></Data><Data name="highway"><value>residential</value></Data><Data name="name"><value>Justo José de Urquiza</value></Data><Data name="oneway"><value>yes</value></Data></ExtendedData><LineString><coordinates>-65.4167133,-24.7919228 -65.4153103,-24.7920252</coordinates></LineString></Placemark><Placemark><name>25 de Mayo</name><ExtendedData><Data name="@id"><value>way/197593462</value></Data><Data name="highway"><value>secondary</value></Data><Data name="name"><value>25 de Mayo</value></Data><Data name="oneway"><value>yes</value></Data><Data name="surface"><value>concrete</value></Data></ExtendedData><LineString><coordinates>-65.4146673,-24.7846993 -65.4145873,-24.7839414 -65.4145845,-24.7838637 -65.4145414,-24.783504 -65.414538,-24.7834703 -65.4145355,-24.7834464 -65.4144121,-24.7821919</coordinates></LineString></Placemark><Placemark><name>Carlos Pellegrini</name><ExtendedData><Data name="@id"><value>way/197595482</value></Data><Data name="highway"><value>secondary</value></Data><Data name="name"><value>Carlos Pellegrini</value></Data><Data name="oneway"><value>yes</value></Data></ExtendedData><LineString><coordinates>-65.4155708,-24.7944434 -65.4154181,-24.7931997 -65.4153103,-24.7920252</coordinates></LineString></Placemark><Placemark><name>20 de Febrero</name><ExtendedData><Data name="@id"><value>way/197607327</value></Data><Data name="highway"><value>residential</value></Data><Data name="name"><value>20 de Febrero</value></Data><Data name="oneway"><value>yes</value></Data></ExtendedData><LineString><coordinates>-65.4131584,-24.7835422 -65.4132621,-24.784789</coordinates></LineString></Placemark><Placemark><name>Avenida Manuel Belgrano</name><ExtendedData><Data name="@id"><value>way/197610845</value></Data><Data name="cycleway:left"><value>lane</value></Data><Data name="highway"><value>secondary</value></Data><Data name="name"><value>Avenida Manuel Belgrano</value></Data><Data name="oneway"><value>yes</value></Data><Data name="surface"><value>asphalt</value></Data></ExtendedData><LineString><coordinates>-65.4134854,-24.7870476 -65.4128235,-24.7872665 -65.4122065,-24.7874934 -65.4108343,-24.7877121</coordinates></LineString></Placemark><Placemark><name>Avenida San Martín</name><ExtendedData><Data name="@id"><value>way/197610846</value></Data><Data name="highway"><value>secondary</value></Data><Data name="name"><value>Avenida San Martín</value></Data><Data name="oneway"><value>yes</value></Data><Data name="surface"><value>asphalt</value></Data></ExtendedData><LineString><coordinates>-65.4100013,-24.7937767 -65.4100521,-24.7937729 -65.4105128,-24.7937381 -65.4108244,-24.793688 -65.4112672,-24.7935638 -65.4113605,-24.7935376 -65.4124126,-24.7933761 -65.4127616,-24.7933401</coordinates></LineString></Placemark><Placemark><name>Buenos Aires</name><ExtendedData><Data name="@id"><value>way/197610847</value></Data><Data name="highway"><value>residential</value></Data><Data name="name"><value>Buenos Aires</value></Data><Data name="oneway"><value>yes</value></Data><Data name="parking:right"><value>no</value></Data></ExtendedData><LineString><coordinates>-65.4100013,-24.7937767 -65.409898,-24.7924891 -65.4097793,-24.7911981 -65.4097436,-24.7906851 -65.4096859,-24.7898542</coordinates></LineString></Placemark><Placemark><name>20 de Febrero</name><ExtendedData><Data name="@id"><value>way/197610888</value></Data><Data name="highway"><value>residential</value></Data><Data name="name"><value>20 de Febrero</value></Data><Data name="old_name"><value>Calle de la Estrella</value></Data><Data name="oneway"><value>yes</value></Data><Data name="surface"><value>asphalt</value></Data></ExtendedData><LineString><coordinates>-65.4134854,-24.7870476 -65.4135358,-24.787588 -65.4136067,-24.7883474 -65.4137381,-24.7896137</coordinates></LineString></Placemark><Placemark><name>Avenida Manuel Belgrano</name><ExtendedData><Data name="@id"><value>way/197611866</value></Data><Data name="cycleway:left"><value>lane</value></Data><Data name="highway"><value>secondary</value></Data><Data name="lane_markings"><value>yes</value></Data><Data name="name"><value>Avenida Manuel Belgrano</value></Data><Data name="oneway"><value>yes</value></Data><Data name="surface"><value>asphalt</value></Data></ExtendedData><LineString><coordinates>-65.4148975,-24.7869253 -65.4141898,-24.7869985 -65.4134854,-24.7870476</coordinates></LineString></Placemark><Placemark><name>25 de Mayo</name><ExtendedData><Data name="@id"><value>way/197611921</value></Data><Data name="highway"><value>secondary</value></Data><Data name="lane_markings"><value>no</value></Data><Data name="name"><value>25 de Mayo</value></Data><Data name="oneway"><value>yes</value></Data><Data name="surface"><value>asphalt</value></Data></ExtendedData><LineString><coordinates>-65.4148975,-24.7869253 -65.4147748,-24.7858319 -65.4146673,-24.7846993</coordinates></LineString></Placemark><Placemark><name>Manuel Antonio Castro</name><ExtendedData><Data name="@id"><value>way/197817013</value></Data><Data name="highway"><value>residential</value></Data><Data name="name"><value>Manuel Antonio Castro</value></Data><Data name="oneway"><value>yes</value></Data></ExtendedData><LineString><coordinates>-65.4127659,-24.7860823 -65.4126489,-24.7848388</coordinates></LineString></Placemark><Placemark><name>Buenos Aires</name><ExtendedData><Data name="@id"><value>way/198405113</value></Data><Data name="highway"><value>residential</value></Data><Data name="name"><value>Buenos Aires</value></Data><Data name="oneway"><value>yes</value></Data></ExtendedData><LineString><coordinates>-65.4101036,-24.7948911 -65.4100167,-24.7939554 -65.4100095,-24.7938719 -65.4100013,-24.7937767</coordinates></LineString></Placemark><Placemark><name>Juan Martín Leguizamón</name><ExtendedData><Data name="@id"><value>way/198407112</value></Data><Data name="foot"><value>yes</value></Data><Data name="highway"><value>residential</value></Data><Data name="lit"><value>yes</value></Data><Data name="name"><value>Juan Martín Leguizamón</value></Data><Data name="oneway"><value>yes</value></Data><Data name="sidewalk"><value>both</value></Data><Data name="surface"><value>asphalt</value></Data></ExtendedData><LineString><coordinates>-65.4037814,-24.7841527 -65.4051096,-24.7840627 -65.406401,-24.7839841</coordinates></LineString></Placemark><Placemark><name>Avenida Manuel Belgrano</name><ExtendedData><Data name="@id"><value>way/198408556</value></Data><Data name="cycleway:left"><value>lane</value></Data><Data name="highway"><value>secondary</value></Data><Data name="lane_markings"><value>yes</value></Data><Data name="name"><value>Avenida Manuel Belgrano</value></Data><Data name="oneway"><value>yes</value></Data><Data name="surface"><value>asphalt</value></Data></ExtendedData><LineString><coordinates>-65.4094554,-24.7875635 -65.408518,-24.7875809 -65.4080772,-24.7875891</coordinates></LineString></Placemark><Placemark><name>Facundo de Zuviría</name><ExtendedData><Data name="@id"><value>way/198408561</value></Data><Data name="highway"><value>tertiary</value></Data><Data name="name"><value>Facundo de Zuviría</value></Data><Data name="oneway"><value>yes</value></Data><Data name="short_name"><value>Zuviria</value></Data><Data name="surface"><value>asphalt</value></Data></ExtendedData><LineString><coordinates>-65.4094554,-24.7875635 -65.4093416,-24.7864696 -65.4092837,-24.7859394 -65.4091942,-24.7851203</coordinates></LineString></Placemark><Placemark><name>Juramento</name><ExtendedData><Data name="@id"><value>way/625653840</value></Data><Data name="highway"><value>residential</value></Data><Data name="name"><value>Juramento</value></Data><Data name="oneway"><value>yes</value></Data></ExtendedData><LineString><coordinates>-65.4040248,-24.7870115 -65.4040159,-24.7868707 -65.4040102,-24.7868071 -65.4038979,-24.7855445 -65.4037899,-24.7842543 -65.4037814,-24.7841527</coordinates></LineString></Placemark><Placemark><ExtendedData><Data name="@id"><value>way/625878572</value></Data><Data name="highway"><value>secondary_link</value></Data></ExtendedData><LineString><coordinates>-65.4046521,-24.7868939 -65.4046474,-24.7870357</coordinates></LineString></Placemark><Placemark><name>Juan Martín de Pueyrredón</name><ExtendedData><Data name="@id"><value>way/655122788</value></Data><Data name="highway"><value>residential</value></Data><Data name="name"><value>Juan Martín de Pueyrredón</value></Data><Data name="oneway"><value>yes</value></Data><Data name="short_name"><value>Pueyrredón</value></Data><Data name="surface"><value>asphalt</value></Data></ExtendedData><LineString><coordinates>-65.4066662,-24.7867668 -65.40652,-24.7853361 -65.406401,-24.7839841</coordinates></LineString></Placemark><Placemark><name>Avenida Manuel Belgrano</name><ExtendedData><Data name="@id"><value>way/784223989</value></Data><Data name="cycleway:left"><value>lane</value></Data><Data name="highway"><value>secondary</value></Data><Data name="name"><value>Avenida Manuel Belgrano</value></Data><Data name="oneway"><value>yes</value></Data></ExtendedData><LineString><coordinates>-65.4058482,-24.7872147 -65.4058158,-24.7871821 -65.4057208,-24.7871216 -65.4056132,-24.7870893 -65.4055223,-24.7870687 -65.4053864,-24.7870652 -65.4053336,-24.7870639</coordinates></LineString></Placemark><Placemark><name>Vicente López</name><ExtendedData><Data name="@id"><value>way/812705810</value></Data><Data name="fixme:housenumber"><value>168</value></Data><Data name="highway"><value>tertiary</value></Data><Data name="lane_markings"><value>no</value></Data><Data name="name"><value>Vicente López</value></Data><Data name="oneway"><value>yes</value></Data><Data name="surface"><value>asphalt</value></Data></ExtendedData><LineString><coordinates>-65.4053336,-24.7870639 -65.405338,-24.7871108 -65.4054067,-24.7878513 -65.4054916,-24.788958 -65.4055937,-24.7901615</coordinates></LineString></Placemark><Placemark><name>General Martín Miguel de Güemes</name><ExtendedData><Data name="@id"><value>way/812705811</value></Data><Data name="cycleway:left"><value>lane</value></Data><Data name="highway"><value>secondary</value></Data><Data name="name"><value>General Martín Miguel de Güemes</value></Data><Data name="oneway"><value>yes</value></Data></ExtendedData><LineString><coordinates>-65.4053336,-24.7870639 -65.4052222,-24.7870592 -65.4046474,-24.7870357 -65.4041014,-24.7870144 -65.4040248,-24.7870115 -65.4039047,-24.7870049 -65.4033972,-24.786977 -65.4026531,-24.7869496 -65.4025572,-24.7869461</coordinates></LineString></Placemark><Placemark><name>Hernando de Lerma</name><ExtendedData><Data name="@id"><value>way/906980364</value></Data><Data name="highway"><value>secondary</value></Data><Data name="lanes"><value>3</value></Data><Data name="lit"><value>yes</value></Data><Data name="maxspeed"><value>40</value></Data><Data name="name"><value>Hernando de Lerma</value></Data><Data name="oneway"><value>yes</value></Data><Data name="parking:left"><value>yes</value></Data><Data name="parking:left:orientation"><value>diagonal</value></Data><Data name="sidewalk"><value>both</value></Data><Data name="surface"><value>asphalt</value></Data></ExtendedData><LineString><coordinates>-65.408328,-24.8081528 -65.4083222,-24.8080808 -65.4082728,-24.8073722 -65.4082151,-24.8066499 -65.4081778,-24.8061068 -65.4081717,-24.8060296 -65.4081445,-24.8056589 -65.4081279,-24.8054003 -65.4080776,-24.8047349 -65.4080316,-24.8040963 -65.407994,-24.8036165 -65.4079296,-24.8028559 -65.4078242,-24.8015849 -65.4077333,-24.800336 -65.4076752,-24.7996425 -65.4076153,-24.7988867 -65.4075056,-24.7976716 -65.4074512,-24.7970733 -65.4074045,-24.7964986 -65.407278,-24.7951269 -65.4072278,-24.794754 -65.4072251,-24.7947338 -65.4072167,-24.7946717 -65.4072036,-24.7945237 -65.4071979,-24.7944681 -65.4071867,-24.7942719 -65.4071709,-24.7939941 -65.4071657,-24.7939114</coordinates></LineString></Placemark><Placemark><name>General Martín Miguel de Güemes</name><ExtendedData><Data name="@id"><value>way/1155666831</value></Data><Data name="highway"><value>secondary</value></Data><Data name="name"><value>General Martín Miguel de Güemes</value></Data><Data name="oneway"><value>yes</value></Data></ExtendedData><LineString><coordinates>-65.4025802,-24.786813 -65.4026611,-24.786816 -65.40281,-24.7868216 -65.403395,-24.7868435 -65.4039034,-24.7868658 -65.4040159,-24.7868707 -65.4040975,-24.7868735 -65.4046521,-24.7868939 -65.4052118,-24.786909 -65.405318,-24.786912</coordinates></LineString></Placemark><Placemark><name>Vicente López</name><ExtendedData><Data name="@id"><value>way/1155666833</value></Data><Data name="fixme:housenumber"><value>168</value></Data><Data name="highway"><value>residential</value></Data><Data name="name"><value>Vicente López</value></Data><Data name="oneway"><value>yes</value></Data></ExtendedData><LineString><coordinates>-65.405318,-24.786912 -65.4053336,-24.7870639</coordinates></LineString></Placemark><Placemark><name>General Martín Miguel de Güemes</name><ExtendedData><Data name="@id"><value>way/1155666834</value></Data><Data name="highway"><value>secondary</value></Data><Data name="name"><value>General Martín Miguel de Güemes</value></Data><Data name="oneway"><value>yes</value></Data></ExtendedData><LineString><coordinates>-65.405318,-24.786912 -65.4053864,-24.786914 -65.4058612,-24.7869281</coordinates></LineString></Placemark><Placemark><name>Hernando de Lerma</name><ExtendedData><Data name="@id"><value>way/1238469291</value></Data><Data name="highway"><value>residential</value></Data><Data name="lanes"><value>3</value></Data><Data name="lit"><value>yes</value></Data><Data name="maxspeed"><value>40</value></Data><Data name="name"><value>Hernando de Lerma</value></Data><Data name="oneway"><value>yes</value></Data><Data name="parking:left"><value>yes</value></Data><Data name="parking:left:orientation"><value>diagonal</value></Data><Data name="sidewalk"><value>both</value></Data><Data name="surface"><value>asphalt</value></Data></ExtendedData><LineString><coordinates>-65.4071657,-24.7939114 -65.4071,-24.7926231 -65.4070282,-24.7913434 -65.4069425,-24.7900668</coordinates></LineString></Placemark><Placemark><name>Córdoba</name><ExtendedData><Data name="@id"><value>way/1238469292</value></Data><Data name="highway"><value>residential</value></Data><Data name="lanes"><value>4</value></Data><Data name="lit"><value>yes</value></Data><Data name="maxspeed"><value>40</value></Data><Data name="name"><value>Córdoba</value></Data><Data name="oneway"><value>yes</value></Data><Data name="parking:condition:both"><value>free</value></Data><Data name="parking:lane:both"><value>parallel</value></Data><Data name="sidewalk"><value>both</value></Data><Data name="surface"><value>paving_stones</value></Data></ExtendedData><LineString><coordinates>-65.4083104,-24.789984 -65.4084173,-24.7913123 -65.4085278,-24.7925402 -65.4085931,-24.7932617 -65.4086459,-24.7938456</coordinates></LineString></Placemark><Placemark><name>Catamarca</name><ExtendedData><Data name="@id"><value>way/1238469293</value></Data><Data name="highway"><value>tertiary</value></Data><Data name="lanes"><value>2</value></Data><Data name="lit"><value>yes</value></Data><Data name="maxspeed"><value>40</value></Data><Data name="name"><value>Catamarca</value></Data><Data name="oneway"><value>yes</value></Data><Data name="sidewalk"><value>both</value></Data><Data name="smoothness"><value>horrible</value></Data><Data name="surface"><value>asphalt</value></Data></ExtendedData><LineString><coordinates>-65.4057127,-24.7913571 -65.4057176,-24.7914204 -65.4058033,-24.7926967 -65.4058662,-24.7939671</coordinates></LineString></Placemark><Placemark><name>Rudecindo Alvarado</name><ExtendedData><Data name="@id"><value>way/1238469294</value></Data><Data name="highway"><value>tertiary</value></Data><Data name="name"><value>Rudecindo Alvarado</value></Data><Data name="oneway"><value>yes</value></Data></ExtendedData><LineString><coordinates>-65.4018279,-24.7917245 -65.4019517,-24.7916963 -65.4027005,-24.7916116 -65.4027726,-24.7916047 -65.4028591,-24.7915968 -65.4043806,-24.7915305 -65.4056344,-24.7913625 -65.4057127,-24.7913571</coordinates></LineString></Placemark><Placemark><name>Catamarca</name><ExtendedData><Data name="@id"><value>way/1238469295</value></Data><Data name="highway"><value>tertiary</value></Data><Data name="lanes"><value>2</value></Data><Data name="lit"><value>yes</value></Data><Data name="maxspeed"><value>40</value></Data><Data name="name"><value>Catamarca</value></Data><Data name="oneway"><value>yes</value></Data><Data name="sidewalk"><value>both</value></Data><Data name="smoothness"><value>horrible</value></Data><Data name="surface"><value>asphalt</value></Data></ExtendedData><LineString><coordinates>-65.4055937,-24.7901615 -65.4057044,-24.7912646 -65.4057127,-24.7913571</coordinates></LineString></Placemark><Placemark><name>Vicente López</name><ExtendedData><Data name="@id"><value>way/1289771113</value></Data><Data name="fixme:housenumber"><value>168</value></Data><Data name="highway"><value>residential</value></Data><Data name="name"><value>Vicente López</value></Data><Data name="oneway"><value>yes</value></Data></ExtendedData><LineString><coordinates>-65.4049003,-24.7816161 -65.4049061,-24.7816719 -65.4049623,-24.7822079 -65.4050225,-24.7828178 -65.4051096,-24.7840627 -65.4052214,-24.7854324 -65.4053147,-24.7868611 -65.405318,-24.786912</coordinates></LineString></Placemark><Placemark><name>Juan Martín de Pueyrredón</name><ExtendedData><Data name="@id"><value>way/1392217602</value></Data><Data name="highway"><value>residential</value></Data><Data name="lane_markings"><value>no</value></Data><Data name="name"><value>Juan Martín de Pueyrredón</value></Data><Data name="oneway"><value>yes</value></Data><Data name="short_name"><value>Pueyrredón</value></Data><Data name="surface"><value>asphalt</value></Data></ExtendedData><LineString><coordinates>-65.40673,-24.7876419 -65.4066662,-24.7867668</coordinates></LineString></Placemark><Placemark><name>España</name><ExtendedData><Data name="@id"><value>way/1392217605</value></Data><Data name="highway"><value>residential</value></Data><Data name="name"><value>España</value></Data><Data name="oneway"><value>yes</value></Data><Data name="surface"><value>concrete</value></Data></ExtendedData><LineString><coordinates>-65.402654,-24.7891802 -65.4041774,-24.7890599</coordinates></LineString></Placemark><Placemark><name>Ituzaingó</name><ExtendedData><Data name="@id"><value>way/1392217611</value></Data><Data name="highway"><value>residential</value></Data><Data name="name"><value>Ituzaingó</value></Data><Data name="oneway"><value>yes</value></Data></ExtendedData><LineString><coordinates>-65.4141065,-24.7932565 -65.4142311,-24.7945556</coordinates></LineString></Placemark><Placemark><ExtendedData><Data name="@id"><value>way/1497231273</value></Data><Data name="highway"><value>residential</value></Data></ExtendedData><LineString><coordinates>-65.4061597,-24.7889068 -65.4060667,-24.7881492</coordinates></LineString></Placemark></Document></kml>